NOAA 15                 
1 25338U 98030A   25119.16101560  .00000351  00000+0  16183-3 0  9999
2 25338  98.5388 145.2830 0011413 118.2003 242.0331 14.26953622402496
DMSP 5D-3 F16 (USA 172) 
1 28054U 03048A   25119.20005854  .00000223  00000+0  14044-3 0  9998
2 28054  99.0155 134.6578 0006262 233.6034 216.5868 14.14344010110944
NOAA 18                 
1 28654U 05018A   25119.21523558  .00000353  00000+0  21074-3 0  9995
2 28654  98.8423 199.1560 0013242 244.2960 115.6845 14.13586798 27901
METEOSAT-9 (MSG-2)      
1 28912U 05049B   25118.89542730  .00000125  00000+0  00000+0 0  9991
2 28912   8.4172  58.0930 0000743 357.8496 169.2049  1.00274873  2855
EWS-G1 (GOES 13)        
1 29155U 06018A   25118.90593984 -.00000056  00000+0  00000+0 0  9991
2 29155   3.4543  81.4600 0065058 264.6505 296.8079  0.98828665 39155
DMSP 5D-3 F17 (USA 191) 
1 29522U 06050A   25119.12941784  .00000273  00000+0  16404-3 0  9994
2 29522  98.7405 129.1995 0010604 152.2130 207.9612 14.14821547953861
FENGYUN 3A              
1 32958U 08026A   25119.07754411  .00000287  00000+0  15681-3 0  9990
2 32958  98.6454  63.7887 0007652 238.1216 121.9217 14.19429411876760
NOAA 19                 
1 33591U 09005A   25119.14418203  .00000322  00000+0  19539-3 0  9992
2 33591  98.9997 183.6116 0014786 119.6031 240.6616 14.13351206836252
GOES 14                 
1 35491U 09033A   25119.15046483 -.00000067  00000+0  00000+0 0  9998
2 35491   0.6088  88.4857 0000603  54.9627  19.7055  1.00270445 58001
DMSP 5D-3 F18 (USA 210) 
1 35951U 09057A   25119.19795401  .00000487  00000+0  27663-3 0  9993
2 35951  98.8574  97.1033 0011045 354.3989   5.7059 14.14601569801036
EWS-G2 (GOES 15)        
1 36411U 10008A   25119.21641964  .00000036  00000+0  00000+0 0  9992
2 36411   0.2023  85.8657 0001937 185.2598  85.6877  1.00274459 55486
COMS 1                  
1 36744U 10032A   25118.91176082 -.00000344  00000+0  00000+0 0  9991
2 36744   3.7447  80.5807 0000781 302.0932 290.8221  1.00270434 46931
FENGYUN 3B              
1 37214U 10059A   25119.23130855  .00000144  00000+0  98527-4 0  9990
2 37214  99.0171 157.2078 0021036 279.5371 155.8008 14.14719246748939
SUOMI NPP               
1 37849U 11061A   25119.16678829  .00000176  00000+0  10422-3 0  9990
2 37849  98.7557  58.8971 0002558  78.5097 281.6366 14.19525767699696
METEOSAT-10 (MSG-3)     
1 38552U 12035B   25119.17201116 -.00000006  00000+0  00000+0 0  9996
2 38552   3.6944  62.0541 0000475 322.6636 254.8693  1.00265985 47063
METOP-B                 
1 38771U 12049A   25119.14964528  .00000251  00000+0  13408-3 0  9995
2 38771  98.5806 174.5244 0002011 106.6176 253.5223 14.21486695654432
INSAT-3D                
1 39216U 13038B   25118.98586465 -.00000339  00000+0  00000+0 0  9998
2 39216   0.8545  88.0925 0001581 237.7523  15.8202  1.00270596 43152
FENGYUN 3C              
1 39260U 13052A   25119.15872966  .00000237  00000+0  14182-3 0  9993
2 39260  98.4534 108.2626 0015553 132.4160 227.8333 14.15613052600053
METEOR-M 2              
1 40069U 14037A   25119.22604696  .00000270  00000+0  14319-3 0  9996
2 40069  98.4666 105.8594 0006240 148.9856 211.1692 14.21280909560510
HIMAWARI-8              
1 40267U 14060A   25118.77144905 -.00000276  00000+0  00000+0 0  9998
2 40267   0.0596  85.6117 0000236 339.9260 209.8399  1.00270153 38596
FENGYUN 2G              
1 40367U 14090A   25118.90602671 -.00000299  00000+0  00000+0 0  9991
2 40367   4.5897  77.8294 0003077 134.6038  70.0980  1.00276018 37845
METEOSAT-11 (MSG-4)     
1 40732U 15034A   25119.17383565  .00000062  00000+0  00000+0 0  9991
2 40732   2.1673  72.2773 0001514 286.1421 291.0090  1.00265042 35863
ELEKTRO-L 2             
1 41105U 15074A   25118.74056367 -.00000115  00000+0  00000+0 0  9999
2 41105   5.6480  75.6143 0002081 231.0258 162.4442  1.00271399 34354
INSAT-3DR               
1 41752U 16054A   25118.11563792 -.00000076  00000+0  00000+0 0  9998
2 41752   0.1627  89.1764 0011009 186.5449  56.2483  1.00270740 31654
HIMAWARI-9              
1 41836U 16064A   25118.91428036 -.00000275  00000+0  00000+0 0  9992
2 41836   0.0449  99.1568 0000893 304.6374 283.2455  1.00272092 31057
GOES 16                 
1 41866U 16071A   25118.86953697 -.00000191  00000+0  00000+0 0  9990
2 41866   0.0503 276.7676 0000706 197.1672 331.6443  1.00128628 30940
FENGYUN 4A              
1 41882U 16077A   25118.98230767 -.00000357  00000+0  00000+0 0  9997
2 41882   1.2662  84.6202 0008116 165.3471  84.4865  1.00273493 30824
CYGFM05                 
1 41884U 16078A   25119.16697989  .00017619  00000+0  43574-3 0  9999
2 41884  34.9607  82.9802 0011163 227.7130 132.2643 15.39493119464694
CYGFM04                 
1 41885U 16078B   25119.17792227  .00019065  00000+0  44629-3 0  9991
2 41885  34.9366  62.8682 0010498 248.9690 110.9907 15.41144840464880
CYGFM02                 
1 41886U 16078C   25119.14083394  .00022163  00000+0  50194-3 0  9994
2 41886  34.9456  63.6939 0012164 241.7645 118.1847 15.42090702464890
CYGFM01                 
1 41887U 16078D   25118.96950321  .00020606  00000+0  50332-3 0  9991
2 41887  34.9439  87.9604 0010422 214.9384 145.0652 15.39853227464491
CYGFM08                 
1 41888U 16078E   25119.17336770  .00018606  00000+0  44147-3 0  9996
2 41888  34.9475  71.8175 0012762 237.3809 122.5679 15.40714374464767
CYGFM07                 
1 41890U 16078G   25118.93758829  .00021606  00000+0  50373-3 0  9997
2 41890  34.9495  63.5905 0010953 251.7690 108.1838 15.41243320464709
CYGFM03                 
1 41891U 16078H   25118.87222468  .00022088  00000+0  51882-3 0  9997
2 41891  34.9447  65.5569 0009739 238.6344 121.3423 15.41030319464670
FENGYUN 3D              
1 43010U 17072A   25119.15971903  .00000213  00000+0  12252-3 0  9998
2 43010  98.9592  82.4871 0002165 125.2603 234.8775 14.19616330386248
NOAA 20 (JPSS-1)        
1 43013U 17073A   25119.18243017  .00000154  00000+0  93997-4 0  9993
2 43013  98.7395  58.2965 0002139  67.9711 292.1692 14.19531636385731
GOES 17                 
1 43226U 18022A   25118.86554047 -.00000093  00000+0  00000+0 0  9997
2 43226   0.0385  60.2520 0002244  31.4343 332.6139  1.00271403 26261
FENGYUN 2H              
1 43491U 18050A   25118.90203022 -.00000129  00000+0  00000+0 0  9991
2 43491   1.9635  83.9269 0000589 155.4608  21.8091  1.00270902 25284
METOP-C                 
1 43689U 18087A   25119.18536235  .00000251  00000+0  13462-3 0  9991
2 43689  98.7186 180.0321 0000223  27.2447 332.8742 14.21469899336014
GEO-KOMPSAT-2A          
1 43823U 18100A   25118.79836531 -.00000344  00000+0  00000+0 0  9999
2 43823   0.0619  82.1617 0001797 344.6622 205.8680  1.00272527 23475
METEOR-M2 2             
1 44387U 19038A   25119.18824225  .00000186  00000+0  10066-3 0  9997
2 44387  98.8723  96.4686 0002189 110.2334 249.9080 14.24194739302368
ARKTIKA-M 1             
1 47719U 21016A   25118.78057943  .00000078  00000+0  00000+0 0  9991
2 47719  63.1448 113.9682 7084235 268.5740  16.7891  2.00604244 30475
FENGYUN 3E              
1 49008U 21062A   25119.20090616  .00000039  00000+0  38984-4 0  9991
2 49008  98.7429 122.4319 0001568 159.3028 200.8212 14.19861531197834
GOES 18                 
1 51850U 22021A   25119.25099477  .00000096  00000+0  00000+0 0  9990
2 51850   0.0057  38.0808 0000033  37.9246  94.8052  1.00270748 11657
NOAA 21 (JPSS-2)        
1 54234U 22150A   25118.86620817  .00000197  00000+0  11424-3 0  9994
2 54234  98.7250  58.3491 0000814 338.6974  21.4169 14.19525915127762
METEOSAT-12 (MTG-I1)    
1 54743U 22170C   25118.88621800 -.00000008  00000+0  00000+0 0  9992
2 54743   0.6413  34.8636 0001082 309.6203 191.2829  1.00269243  8820
TIANMU-1 03             
1 55973U 23039A   25119.16595643  .00016369  00000+0  49518-3 0  9997
2 55973  97.4970 277.0255 0005190 139.1421 221.0212 15.34268236117101
TIANMU-1 04             
1 55974U 23039B   25119.11948790  .00018450  00000+0  55375-3 0  9999
2 55974  97.4897 276.2932 0006061 136.5192 223.6530 15.34487180117097
TIANMU-1 05             
1 55975U 23039C   25119.20023282  .00016695  00000+0  50536-3 0  9993
2 55975  97.4945 276.8271 0004627 154.3214 205.8259 15.34245235117096
TIANMU-1 06             
1 55976U 23039D   25119.19747046  .00017080  00000+0  51164-3 0  9990
2 55976  97.4959 277.1216 0005032 152.4934 207.6576 15.34569993117108
METEOR-M2 3             
1 57166U 23091A   25119.17638125  .00000064  00000+0  46853-4 0  9990
2 57166  98.6647 176.2643 0002900 301.7215  58.3680 14.23995128 95598
TIANMU-1 07             
1 57399U 23101A   25119.19915349  .00008917  00000+0  36487-3 0  9994
2 57399  97.3141 174.2411 0005485 145.5458 214.6136 15.24541023 98450
TIANMU-1 08             
1 57400U 23101B   25119.16548377  .00009353  00000+0  38235-3 0  9995
2 57400  97.3129 174.0420 0007394 154.0312 206.1298 15.24545604 98445
TIANMU-1 09             
1 57401U 23101C   25119.14797897  .00009441  00000+0  38509-3 0  9999
2 57401  97.3085 173.6814 0007255 150.9628 209.2014 15.24617863 98447
TIANMU-1 10             
1 57402U 23101D   25119.11359321  .00006518  85314-8  26565-3 0  9994
2 57402  97.3165 174.2604 0008596 154.9371 205.2285 15.24470456 98439
FENGYUN 3F              
1 57490U 23111A   25119.19870818  .00000165  00000+0  97950-4 0  9998
2 57490  98.7285 190.8200 0000442 131.5185 228.6030 14.20033890 90112
ARKTIKA-M 2             
1 58584U 23198A   25117.52460848  .00000190  00000+0  00000+0 0  9994
2 58584  63.2282 199.9293 6879401 269.0099  18.3692  2.00610206  9989
TIANMU-1 11             
1 58645U 23205A   25119.14283104  .00008602  00000+0  38344-3 0  9991
2 58645  97.3750 143.0299 0010747  33.2976 326.8934 15.21607975 74456
TIANMU-1 12             
1 58646U 23205B   25119.15866490  .00008383  00000+0  37320-3 0  9997
2 58646  97.3736 142.9161 0008639  28.9711 331.2003 15.21677391 74447
TIANMU-1 13             
1 58647U 23205C   25119.18955796  .00003458  00000+0  15651-3 0  9990
2 58647  97.3767 143.0671 0007843   4.9565 355.1747 15.21537215 74447
TIANMU-1 14             
1 58648U 23205D   25119.17482486  .00008065  00000+0  35909-3 0  9998
2 58648  97.3693 142.6083 0008996  12.3792 347.7663 15.21682422 74448
TIANMU-1 19             
1 58660U 23208A   25119.17280367  .00010951  00000+0  46183-3 0  9992
2 58660  97.4239 231.7605 0005001 353.5108   6.6064 15.23469822 74135
TIANMU-1 20             
1 58661U 23208B   25119.20702146  .00010834  00000+0  44072-3 0  9996
2 58661  97.4173 232.0200 0007737 359.8105   0.3129 15.24675354 74180
TIANMU-1 21             
1 58662U 23208C   25119.19261188  .00012835  00000+0  49371-3 0  9991
2 58662  97.4216 233.0487 0007233 358.0752   2.0457 15.26505353 74239
TIANMU-1 22             
1 58663U 23208D   25119.22525059  .00009856  00000+0  41574-3 0  9992
2 58663  97.4232 231.9181 0004258  24.4014 335.7423 15.23495019 74159
TIANMU-1 15             
1 58700U 24004A   25118.90641992  .00008941  00000+0  39768-3 0  9994
2 58700  97.4650 301.7795 0007588  31.4667 328.7022 15.21700342 72671
TIANMU-1 16             
1 58701U 24004B   25119.15438241  .00007526  00000+0  33540-3 0  9994
2 58701  97.4585 301.6071 0008060  33.3172 326.8569 15.21686473 72711
TIANMU-1 17             
1 58702U 24004C   25119.21088165  .00008491  00000+0  37810-3 0  9994
2 58702  97.4622 301.9498 0006166  33.7030 326.4597 15.21686886 72717
TIANMU-1 18             
1 58703U 24004D   25119.18996499  .00008770  00000+0  39228-3 0  9994
2 58703  97.4640 302.0808 0005689  19.4550 340.6902 15.21523908 72715
INSAT-3DS               
1 58990U 24033A   25119.11684213 -.00000156  00000+0  00000+0 0  9998
2 58990   0.0985  89.6495 0001492 294.2880 317.5418  1.00270300  4663
METEOR-M2 4             
1 59051U 24039A   25119.14050545  .00000080  00000+0  55691-4 0  9997
2 59051  98.6464  80.0557 0006001 293.4102  66.6445 14.22361233 60400
GOES 19                 
1 60133U 24119A   25119.15698084 -.00000249  00000+0  00000+0 0  9993
2 60133   0.0558  84.2005 0000093 302.8962 171.5851  1.00272222  3159
